OBJECT_NAME,OBJECT_ID,EPOCH,MEAN_MOTION,ECCENTRICITY,INCLINATION,RA_OF_ASC_NODE,ARG_OF_PERICENTER,MEAN_ANOMALY,EPHEMERIS_TYPE,CLASSIFICATION_TYPE,NORAD_CAT_ID,ELEMENT_SET_NO,REV_AT_EPOCH,BSTAR,MEAN_MOTION_DOT,MEAN_MOTION_DDOT
STARLINK-32245,2024-222V,2026-07-14T05:56:19.691232,15.27586064,.00022875,43.0044,141.5101,279.7035,80.3558,0,U,62133,999,9226,.32774866E-3,.8769E-4,0
STARLINK-32546,2024-222W,2026-07-14T04:35:49.747200,15.27581615,.00007469,42.9979,138.4943,323.0909,36.9891,0,U,62134,999,9202,.31684216E-3,.8467E-4,0
STARLINK-32545,2024-222X,2026-07-14T06:33:20.047680,15.27577837,.00016668,43.0006,141.7013,273.5740,86.4921,0,U,62135,999,9215,.44933573E-3,.12122E-3,0
STARLINK-32554,2024-222Y,2026-07-14T13:32:18.424032,15.27583591,.0001034,43.0012,139.5873,266.4588,93.6145,0,U,62136,999,9220,.38899E-3,.10458E-3,0
STARLINK-32570,2024-222Z,2026-07-14T05:50:46.218336,15.27598724,.0002152,43.0035,141.4786,268.2121,91.8484,0,U,62137,999,9225,.444956E-3,.12009E-3,0
KONDOR-FKA NO. 2,2024-223A,2026-07-14T23:09:24.725664,15.19706484,.00017463,97.4402,39.0109,90.2829,269.8606,0,U,62138,999,8992,.95505821E-4,.1971E-4,0
STARLINK-32529,2024-224A,2026-07-14T06:03:35.112672,15.27576254,.00021903,43.0007,163.5820,264.3418,95.7184,0,U,62139,999,9177,.62573147E-3,.16995E-3,0
STARLINK-32464,2024-224B,2026-07-14T07:48:48.837600,15.27599769,.00014152,43.0010,163.2485,276.8335,83.2356,0,U,62140,999,9178,.30407786E-3,.812E-4,0
STARLINK-32482,2024-224C,2026-07-14T06:53:17.613888,15.27590231,.00022324,43.0032,162.9630,271.2126,88.8470,0,U,62141,999,9168,.36234347E-3,.9725E-4,0
STARLINK-32454,2024-224D,2026-07-13T22:55:46.793280,15.27584138,.00012685,42.9984,172.5485,265.8149,94.2558,0,U,62142,999,9170,.18618764E-3,.4865E-4,0
STARLINK-32485,2024-224E,2026-07-14T08:17:30.437088,15.27583595,.00010772,42.9993,165.9964,278.4081,81.6648,0,U,62143,999,9138,.13643155E-3,.3495E-4,0
STARLINK-32388,2024-224F,2026-07-14T09:49:20.115840,15.27583183,.00004787,42.9975,169.9383,317.0150,43.0664,0,U,62144,999,9177,.20429479E-3,.5365E-4,0
STARLINK-32374,2024-224G,2026-07-14T23:06:18.274464,15.27562098,.00009919,42.9986,159.4285,230.0133,130.0632,0,U,62145,999,9194,.42978366E-3,.11577E-3,0
STARLINK-32384,2024-224H,2026-07-14T23:08:09.995712,15.27593381,.00012012,42.9986,159.4394,245.3519,114.7207,0,U,62146,999,9194,.31551828E-3,.8434E-4,0
STARLINK-32295,2024-224J,2026-07-14T06:07:15.022272,15.27587894,.00014988,43.0000,163.5781,275.1188,84.9492,0,U,62147,999,9172,.24199492E-3,.6404E-4,0
STARLINK-32479,2024-224K,2026-07-13T23:21:01.091520,15.27578262,.00015075,43.0018,164.9076,270.6225,89.4454,0,U,62148,999,9173,.65931627E-4,.1552E-4,0
STARLINK-32468,2024-224L,2026-07-14T22:51:31.467456,15.27568301,.00017924,43.0014,159.3581,291.2020,68.8640,0,U,62149,999,9178,.3871372E-3,.10402E-3,0
STARLINK-32629,2024-224M,2026-07-14T22:12:39.488256,15.27584902,.0001358,42.9999,159.1468,268.0507,92.0189,0,U,62150,999,9194,.2740659E-3,.7288E-4,0
STARLINK-32644,2024-224N,2026-07-14T09:13:43.152672,15.27580204,.00007177,42.9969,162.8290,330.9949,29.0863,0,U,62151,999,9185,.28418471E-3,.7566E-4,0
STARLINK-32623,2024-224P,2026-07-14T06:58:07.141152,15.27614987,.0000605,42.9974,166.4428,248.4217,111.6570,0,U,62152,999,9174,.39719606E-4,.832E-5,0
STARLINK-32639,2024-224Q,2026-07-14T06:01:41.577888,15.27572807,.00019952,42.9998,163.5468,260.2904,99.7722,0,U,62153,999,9167,.35505992E-3,.9519E-4,0
STARLINK-32625,2024-224R,2026-07-14T07:46:58.976544,15.27591564,.00014872,43.0001,163.2359,283.6431,76.4255,0,U,62154,999,9173,.48740183E-3,.13179E-3,0
STARLINK-32635,2024-224S,2026-07-14T22:33:41.010336,15.27579962,.0000874,42.9991,167.0402,292.5288,67.5471,0,U,62155,999,9169,.26378165E-3,.7004E-4,0
STARLINK-32532,2024-224T,2026-07-14T08:33:01.988064,15.27598777,.00014261,43.0004,162.6191,248.1021,111.9679,0,U,62156,999,9169,.1164427E-2,.31938E-3,0
STARLINK-32503,2024-224U,2026-07-14T08:09:37.340064,15.27581190,.00015137,42.9995,170.2753,265.4854,94.5824,0,U,62157,999,9133,.21893537E-3,.5767E-4,0
STARLINK-32508,2024-224V,2026-07-13T09:17:18.609216,15.27591124,.00017422,43.0015,168.2435,273.2510,86.8142,0,U,62158,999,9170,.28574047E-3,.7612E-4,0
STARLINK-32524,2024-224W,2026-07-14T22:56:22.478208,15.27587152,.00003318,43.0001,162.8387,87.3101,272.7789,0,U,62159,999,9174,.26774915E-3,.7115E-4,0
STARLINK-32484,2024-224X,2026-07-14T07:45:06.809472,15.27585482,.00012804,43.0002,163.2251,279.5567,80.5140,0,U,62160,999,9184,.39736159E-3,.1069E-3,0
STARLINK-32497,2024-224Y,2026-07-14T21:11:06.552672,15.27591949,.0000321,42.9962,163.1462,155.1048,204.9819,0,U,62161,999,9188,.49131698E-3,.13287E-3,0
STARLINK-32526,2024-224Z,2026-07-14T22:50:49.474464,15.27582776,.00005937,42.9987,162.8111,252.7606,107.3181,0,U,62162,999,9189,.40477918E-3,.10894E-3,0
