STARLINK-32245          
1 62133U 24222V   26195.24745013  .00008769  00000+0  32775-3 0  9992
2 62133  43.0044 141.5101 0002287 279.7035  80.3558 15.27586064 92269
STARLINK-32546          
1 62134U 24222W   26195.19154800  .00008467  00000+0  31684-3 0  9998
2 62134  42.9979 138.4943 0000746 323.0909  36.9891 15.27581615 92023
STARLINK-32545          
1 62135U 24222X   26195.27314870  .00012122  00000+0  44934-3 0  9998
2 62135  43.0006 141.7013 0001666 273.5740  86.4921 15.27577837 92155
STARLINK-32554          
1 62136U 24222Y   26195.56410213  .00010458  00000+0  38899-3 0  9992
2 62136  43.0012 139.5873 0001034 266.4588  93.6145 15.27583591 92200
STARLINK-32570          
1 62137U 24222Z   26195.24359049  .00012009  00000+0  44496-3 0  9991
2 62137  43.0035 141.4786 0002152 268.2121  91.8484 15.27598724 92251
KONDOR-FKA NO. 2        
1 62138U 24223A   26195.96486951  .00001971  00000+0  95506-4 0  9990
2 62138  97.4402  39.0109 0001746  90.2829 269.8606 15.19706484 89928
STARLINK-32529          
1 62139U 24224A   26195.25248973  .00016995  00000+0  62573-3 0  9993
2 62139  43.0007 163.5820 0002190 264.3418  95.7184 15.27576254 91774
STARLINK-32464          
1 62140U 24224B   26195.32556525  .00008120  00000+0  30408-3 0  9991
2 62140  43.0010 163.2485 0001415 276.8335  83.2356 15.27599769 91789
STARLINK-32482          
1 62141U 24224C   26195.28700942  .00009725  00000+0  36234-3 0  9996
2 62141  43.0032 162.9630 0002232 271.2126  88.8470 15.27590231 91689
STARLINK-32454          
1 62142U 24224D   26194.95540270  .00004865  00000+0  18619-3 0  9993
2 62142  42.9984 172.5485 0001268 265.8149  94.2558 15.27584138 91701
STARLINK-32485          
1 62143U 24224E   26195.34549117  .00003495  00000+0  13643-3 0  9997
2 62143  42.9993 165.9964 0001077 278.4081  81.6648 15.27583595 91383
STARLINK-32388          
1 62144U 24224F   26195.40926060  .00005365  00000+0  20429-3 0  9999
2 62144  42.9975 169.9383 0000478 317.0150  43.0664 15.27583183 91770
STARLINK-32374          
1 62145U 24224G   26195.96271151  .00011577  00000+0  42978-3 0  9990
2 62145  42.9986 159.4285 0000991 230.0133 130.0632 15.27562098 91946
STARLINK-32384          
1 62146U 24224H   26195.96400458  .00008434  00000+0  31552-3 0  9999
2 62146  42.9986 159.4394 0001201 245.3519 114.7207 15.27593381 91946
STARLINK-32295          
1 62147U 24224J   26195.25503498  .00006404  00000+0  24199-3 0  9994
2 62147  43.0000 163.5781 0001498 275.1188  84.9492 15.27587894 91725
STARLINK-32479          
1 62148U 24224K   26194.97292930  .00001552  00000+0  65932-4 0  9999
2 62148  43.0018 164.9076 0001507 270.6225  89.4454 15.27578262 91738
STARLINK-32468          
1 62149U 24224L   26195.95244754  .00010402  00000+0  38714-3 0  9991
2 62149  43.0014 159.3581 0001792 291.2020  68.8640 15.27568301 91788
STARLINK-32629          
1 62150U 24224M   26195.92545704  .00007288  00000+0  27407-3 0  9994
2 62150  42.9999 159.1468 0001358 268.0507  92.0189 15.27584902 91942
STARLINK-32644          
1 62151U 24224N   26195.38452723  .00007566  00000+0  28418-3 0  9995
2 62151  42.9969 162.8290 0000717 330.9949  29.0863 15.27580204 91851
STARLINK-32623          
1 62152U 24224P   26195.29036043  .00000832  00000+0  39720-4 0  9997
2 62152  42.9974 166.4428 0000605 248.4217 111.6570 15.27614987 91745
STARLINK-32639          
1 62153U 24224Q   26195.25117567  .00009519  00000+0  35506-3 0  9993
2 62153  42.9998 163.5468 0001995 260.2904  99.7722 15.27572807 91673
STARLINK-32625          
1 62154U 24224R   26195.32429371  .00013179  00000+0  48740-3 0  9992
2 62154  43.0001 163.2359 0001487 283.6431  76.4255 15.27591564 91738
STARLINK-32635          
1 62155U 24224S   26195.94005799  .00007004  00000+0  26378-3 0  9998
2 62155  42.9991 167.0402 0000874 292.5288  67.5471 15.27579962 91698
STARLINK-32532          
1 62156U 24224T   26195.35627301  .00031938  00000+0  11644-2 0  9995
2 62156  43.0004 162.6191 0001426 248.1021 111.9679 15.27598777 91697
STARLINK-32503          
1 62157U 24224U   26195.34001551  .00005767  00000+0  21894-3 0  9998
2 62157  42.9995 170.2753 0001513 265.4854  94.5824 15.27581190 91337
STARLINK-32508          
1 62158U 24224V   26194.38702094  .00007612  00000+0  28574-3 0  9995
2 62158  43.0015 168.2435 0001742 273.2510  86.8142 15.27591124 91703
STARLINK-32524          
1 62159U 24224W   26195.95581572  .00007115  00000+0  26775-3 0  9995
2 62159  43.0001 162.8387 0000331  87.3101 272.7789 15.27587152 91741
STARLINK-32484          
1 62160U 24224X   26195.32299548  .00010690  00000+0  39736-3 0  9990
2 62160  43.0002 163.2251 0001280 279.5567  80.5140 15.27585482 91845
STARLINK-32497          
1 62161U 24224Y   26195.88271473  .00013287  00000+0  49132-3 0  9995
2 62161  42.9962 163.1462 0000321 155.1048 204.9819 15.27591949 91884
STARLINK-32526          
1 62162U 24224Z   26195.95196151  .00010894  00000+0  40478-3 0  9998
2 62162  42.9987 162.8111 0000593 252.7606 107.3181 15.27582776 91891
